NORAD_CAT_ID,OBJECT_NAME,OBJECT_TYPE,EPOCH,MEAN_MOTION,ECCENTRICITY,INCLINATION,RA_OF_ASC_NODE,ARG_OF_PERICENTER,MEAN_ANOMALY,BSTAR,MEAN_MOTION_DOT,MEAN_MOTION_DDOT,TLE_LINE0,TLE_LINE1,TLE_LINE2,SEMIMAJOR_AXIS,PERIOD,APOGEE,PERIGEE,DECAYED
54800.0,STARLINK-5428,PAYLOAD,2024-01-11 04:14:33,15.08810075,0.0001599,53.2183,333.6619,107.1114,253.0054,-0.00024223,-4.138e-05,0.0,0 STARLINK-5428,1 54800U 22175AU  24011.17677365 -.00004138  00000-0 -24223-3 0  9998,2 54800  53.2183 333.6619 0001599 107.1114 253.0054 15.08810075 58862,6917.972,95.439,540.943,538.731,0.0
54800.0,STARLINK-5428,PAYLOAD,2024-01-11 21:43:47,15.08826086,0.000151,53.219,330.3906,99.2797,260.8366,-0.00015494,-2.752e-05,0.0,0 STARLINK-5428,1 54800U 22175AU  24011.90541005 -.00002752  00000-0 -15494-3 0  9990,2 54800  53.2190 330.3906 0001510  99.2797 260.8366 15.08826086 61139,6917.923,95.438,540.833,538.743,0.0
54800.0,STARLINK-5428,PAYLOAD,2024-01-12 04:05:18,15.08844678,0.0001859,53.2186,329.1996,110.0984,250.0209,1.7539e-05,-9e-08,0.0,0 STARLINK-5428,1 54800U 22175AU  24012.17035472 -.00000009  00000-0  17539-4 0  9991,2 54800  53.2186 329.1996 0001859 110.0984 250.0209 15.08844678 59013,6917.866,95.437,541.017,538.445,0.0
54800.0,STARLINK-5428,PAYLOAD,2024-01-12 07:16:04,15.08845792,0.0001831,53.2188,328.6056,108.6214,251.4977,2.2418e-05,6.9e-07,0.0,0 STARLINK-5428,1 54800U 22175AU  24012.30283389  .00000069  00000-0  22418-4 0  9995,2 54800  53.2188 328.6056 0001831 108.6214 251.4977 15.08845792 61192,6917.863,95.437,540.994,538.461,0.0
54800.0,STARLINK-5428,PAYLOAD,2024-01-13 03:56:05,15.08831546,0.000188,53.2188,324.7399,114.775,245.3438,0.00038625,5.863e-05,0.0,0 STARLINK-5428,1 54800U 22175AU  24013.16395390  .00005863  00000-0  38625-3 0  9999,2 54800  53.2188 324.7399 0001880 114.7750 245.3438 15.08831546 59166,6917.906,95.438,541.072,538.471,0.0
54800.0,STARLINK-5428,PAYLOAD,2024-01-14 05:22:15,15.08850235,0.0001633,53.2189,319.9825,96.5987,263.5191,8.6445e-05,1.088e-05,0.0,0 STARLINK-5428,1 54800U 22175AU  24014.22379507  .00001088  00000-0  86445-4 0  9998,2 54800  53.2189 319.9825 0001633  96.5987 263.5191 15.08850235 59324,6917.849,95.437,540.844,538.584,0.0
54800.0,STARLINK-5428,PAYLOAD,2024-01-15 05:13:01,15.08867663,0.0001508,53.219,315.5224,97.4103,262.706,0.00012886,1.765e-05,0.0,0 STARLINK-5428,1 54800U 22175AU  24015.21737645  .00001765  00000-0  12886-3 0  9998,2 54800  53.2190 315.5224 0001508  97.4103 262.7060 15.08867663 59477,6917.796,95.436,540.704,538.618,0.0
54800.0,STARLINK-5428,PAYLOAD,2024-01-16 00:17:40,15.08843281,0.0001842,53.219,311.9511,115.4782,244.6401,-3.4851e-05,-8.43e-06,0.0,0 STARLINK-5428,1 54800U 22175AU  24016.01227352 -.00000843  00000-0 -34851-4 0  9991,2 54800  53.2190 311.9511 0001842 115.4782 244.6401 15.08843281 59592,6917.87,95.437,541.01,538.461,0.0
54800.0,STARLINK-5428,PAYLOAD,2024-01-16 05:03:49,15.08844874,0.000196,53.2192,311.0614,93.664,266.4576,-1.353e-06,-3.1e-06,0.0,0 STARLINK-5428,1 54800U 22175AU  24016.21099377 -.00000310  00000-0 -13530-5 0  9998,2 54800  53.2192 311.0614 0001960  93.6640 266.4576 15.08844874 61788,6917.865,95.437,541.086,538.375,0.0
54800.0,STARLINK-5428,PAYLOAD,2024-01-16 22:33:04,15.08848515,0.0001906,53.2181,307.7919,119.1835,240.9348,-8.8782e-05,-1.701e-05,0.0,0 STARLINK-5428,1 54800U 22175AU  24016.93963042 -.00001701  00000-0 -88782-4 0  9991,2 54800  53.2181 307.7919 0001906 119.1835 240.9348 15.08848515 61898,6917.854,95.437,541.038,538.401,0.0
54800.0,STARLINK-5428,PAYLOAD,2024-01-17 01:43:50,15.08849016,0.0001541,53.2189,307.2025,87.9849,272.132,-4.8346e-05,-1.058e-05,0.0,0 STARLINK-5428,1 54800U 22175AU  24017.07211223 -.00001058  00000-0 -48346-4 0  9991,2 54800  53.2189 307.2025 0001541  87.9849 272.1320 15.08849016 59757,6917.853,95.437,540.784,538.652,0.0
54800.0,STARLINK-5428,PAYLOAD,2024-01-17 22:23:52,15.08840485,0.0001374,53.2197,303.34,92.3796,267.7354,-4.2477e-05,-9.64e-06,0.0,0 STARLINK-5428,1 54800U 22175AU  24017.93324103 -.00000964  00000-0 -42477-4 0  9992,2 54800  53.2197 303.3400 0001374  92.3796 267.7354 15.08840485 62049,6917.879,95.438,540.694,538.793,0.0
54800.0,STARLINK-5428,PAYLOAD,2024-01-18 01:34:37,15.08841882,0.00014,53.2183,302.738,91.7248,268.3904,-1.0068e-05,-4.48e-06,0.0,0 STARLINK-5428,1 54800U 22175AU  24018.06571685 -.00000448  00000-0 -10068-4 0  9994,2 54800  53.2183 302.7380 0001400  91.7248 268.3904 15.08841882 59900,6917.875,95.437,540.708,538.771,0.0
54800.0,STARLINK-5428,PAYLOAD,2024-01-18 04:45:24,15.08842362,0.0001351,53.2179,302.1402,94.9946,265.12,2.2069e-05,6.3e-07,0.0,0 STARLINK-5428,1 54800U 22175AU  24018.19819523  .00000063  00000-0  22069-4 0  9999,2 54800  53.2179 302.1402 0001351  94.9946 265.1200 15.08842362 62080,6917.873,95.437,540.673,538.804,0.0
54800.0,STARLINK-5428,PAYLOAD,2024-01-18 22:14:38,15.08839899,0.0001478,53.2175,298.8691,101.1845,258.9314,2.1321e-05,5.1e-07,0.0,0 STARLINK-5428,1 54800U 22175AU  24018.92683933  .00000051  00000-0  21321-4 0  9991,2 54800  53.2175 298.8691 0001478 101.1845 258.9314 15.08839899 62195,6917.881,95.438,540.768,538.723,0.0
54800.0,STARLINK-5428,PAYLOAD,2024-01-19 04:36:10,15.08852432,0.0002057,53.2184,297.6786,109.7491,250.3723,-3.6247e-05,-8.65e-06,0.0,0 STARLINK-5428,1 54800U 22175AU  24019.19179215 -.00000865  00000-0 -36247-4 0  9992,2 54800  53.2184 297.6786 0002057 109.7491 250.3723 15.08852432 60075,6917.842,95.437,541.13,538.284,0.0
54800.0,STARLINK-5428,PAYLOAD,2024-01-19 22:05:25,15.08841123,0.0001665,53.2188,294.407,111.7761,248.3409,4.2705e-05,3.92e-06,0.0,0 STARLINK-5428,1 54800U 22175AU  24019.92043821  .00000392  00000-0  42705-4 0  9995,2 54800  53.2188 294.4070 0001665 111.7761 248.3409 15.08841123 62342,6917.877,95.437,540.894,538.59,0.0
54800.0,STARLINK-5428,PAYLOAD,2024-01-20 01:16:12,15.08841414,0.0001554,53.219,293.8123,99.9222,260.1946,8.0196e-05,9.89e-06,0.0,0 STARLINK-5428,1 54800U 22175AU  24020.05291699  .00000989  00000-0  80196-4 0  9997,2 54800  53.2190 293.8123 0001554  99.9222 260.1946 15.08841414 60207,6917.876,95.437,540.816,538.666,0.0
54800.0,STARLINK-5428,PAYLOAD,2024-01-20 17:10:04,15.08832133,0.0001723,53.2187,290.8425,121.1061,239.0101,2.1474e-05,5.4e-07,0.0,0 STARLINK-5428,1 54800U 22175AU  24020.71532596  .00000054  00000-0  21474-4 0  9991,2 54800  53.2187 290.8425 0001723 121.1061 239.0101 15.08832133 60309,6917.904,95.438,540.961,538.577,0.0
54800.0,STARLINK-5428,PAYLOAD,2024-01-20 21:56:13,15.08840567,0.0001475,53.2178,289.9521,112.8225,247.2923,-5.6351e-05,-1.185e-05,0.0,0 STARLINK-5428,1 54800U 22175AU  24020.91404328 -.00001185  00000-0 -56351-4 0  9994,2 54800  53.2178 289.9521 0001475 112.8225 247.2923 15.08840567 62493,6917.879,95.438,540.764,538.723,0.0
54800.0,STARLINK-5428,PAYLOAD,2024-01-20 23:31:36,15.08841551,0.0001572,53.2181,289.6544,119.2745,240.8404,-4.2353e-05,-9.62e-06,0.0,0 STARLINK-5428,1 54800U 22175AU  24020.98028193 -.00000962  00000-0 -42353-4 0  9992,2 54800  53.2181 289.6544 0001572 119.2745 240.8404 15.08841551 60344,6917.876,95.437,540.828,538.653,0.0
54800.0,STARLINK-5428,PAYLOAD,2024-01-21 21:47:00,15.08846848,0.0001635,53.2193,285.492,112.6774,247.4391,-4.0156e-05,-9.27e-06,0.0,0 STARLINK-5428,1 54800U 22175AU  24021.90764172 -.00000927  00000-0 -40156-4 0  9999,2 54800  53.2193 285.4920 0001635 112.6774 247.4391 15.08846848 62645,6917.859,95.437,540.856,538.593,0.0
54800.0,STARLINK-5428,PAYLOAD,2024-01-22 02:33:09,15.08852071,0.0001567,53.2182,284.5994,108.0508,252.0655,7.0305e-06,-1.76e-06,0.0,0 STARLINK-5428,1 54800U 22175AU  24022.10635693 -.00000176  00000-0  70305-5 0  9992,2 54800  53.2182 284.5994 0001567 108.0508 252.0655 15.08852071 60516,6917.843,95.437,540.793,538.624,0.0
54800.0,STARLINK-5428,PAYLOAD,2024-01-22 21:37:47,15.08837687,0.0001507,53.2179,281.0293,108.4341,251.6815,3.934e-05,3.38e-06,0.0,0 STARLINK-5428,1 54800U 22175AU  24022.90124673  .00000338  00000-0  39340-4 0  9993,2 54800  53.2179 281.0293 0001507 108.4341 251.6815 15.08837687 62790,6917.887,95.438,540.795,538.71,0.0
54800.0,STARLINK-5428,PAYLOAD,2024-01-23 00:48:33,15.08841616,0.0001655,53.2184,280.4367,82.1982,277.9198,0.00010937,1.453e-05,0.0,0 STARLINK-5428,1 54800U 22175AU  24023.03372436  .00001453  00000-0  10937-3 0  9999,2 54800  53.2184 280.4367 0001655  82.1982 277.9198 15.08841616 60659,6917.875,95.437,540.885,538.596,0.0
54800.0,STARLINK-5428,PAYLOAD,2024-01-23 23:03:57,15.08847573,0.0001787,53.2183,276.2729,72.8904,287.2284,8.7024e-05,1.097e-05,0.0,0 STARLINK-5428,1 54800U 22175AU  24023.96108090  .00001097  00000-0  87024-4 0  9990,2 54800  53.2183 276.2729 0001787  72.8904 287.2284 15.08847573 62952,6917.857,95.437,540.958,538.486,0.0
54800.0,STARLINK-5428,PAYLOAD,2024-01-24 19:43:58,15.0884468,0.0001896,53.217,272.4143,129.9044,230.2115,-1.5436e-05,-5.34e-06,0.0,0 STARLINK-5428,1 54800U 22175AU  24024.82220341 -.00000534  00000-0 -15436-4 0  9995,2 54800  53.2170 272.4143 0001896 129.9044 230.2115 15.08844680 60928,6917.866,95.437,541.043,538.419,0.0
54800.0,STARLINK-5428,PAYLOAD,2024-01-24 21:19:21,15.08842198,0.0001419,53.2159,272.116,94.6843,265.4311,-1.4166e-05,-5.13e-06,0.0,0 STARLINK-5428,1 54800U 22175AU  24024.88844607 -.00000513  00000-0 -14166-4 0  9994,2 54800  53.2159 272.1160 0001419  94.6843 265.4311 15.08842198 63098,6917.874,95.437,540.72,538.757,0.0
54800.0,STARLINK-5428,PAYLOAD,2024-01-24 22:54:44,15.08841587,0.0001407,53.2162,271.8192,92.0581,268.0572,-2.574e-05,-6.98e-06,0.0,0 STARLINK-5428,1 54800U 22175AU  24024.95468664 -.00000698  00000-0 -25740-4 0  9991,2 54800  53.2162 271.8192 0001407  92.0581 268.0572 15.08841587 60941,6917.876,95.437,540.714,538.767,0.0
54800.0,STARLINK-5428,PAYLOAD,2024-01-25 19:34:46,15.08803238,0.0001902,53.2172,267.9499,112.4812,247.6381,0.00046461,7.107e-05,0.0,0 STARLINK-5428,1 54800U 22175AU  24025.81581128  .00007107  00000-0  46461-3 0  9990,2 54800  53.2172 267.9499 0001902 112.4812 247.6381 15.08803238 61079,6917.993,95.44,541.174,538.542,0.0
